[{"OBJECT_NAME":"STARLINK-4536","OBJECT_ID":"2022-111L","EPOCH":"2026-03-09T22:19:48.489312","MEAN_MOTION":15.0883542,"ECCENTRICITY":0.00019402,"INCLINATION":53.2167,"RA_OF_ASC_NODE":272.9599,"ARG_OF_PERICENTER":102.1677,"MEAN_ANOMALY":257.9533,"EPHEMERIS_TYPE":0,"CLASSIFICATION_TYPE":"U","NORAD_CAT_ID":53783,"ELEMENT_SET_NO":999,"REV_AT_EPOCH":19373,"BSTAR":3.9163344e-5,"MEAN_MOTION_DOT":3.35e-6,"MEAN_MOTION_DDOT":0},{"OBJECT_NAME":"DELTA 1 DEB","OBJECT_ID":"1977-065S","EPOCH":"2026-03-09T16:40:10.462656","MEAN_MOTION":13.68459021,"ECCENTRICITY":0.06537371,"INCLINATION":29.0654,"RA_OF_ASC_NODE":224.4351,"ARG_OF_PERICENTER":207.575,"MEAN_ANOMALY":148.8633,"EPHEMERIS_TYPE":0,"CLASSIFICATION_TYPE":"U","NORAD_CAT_ID":10188,"ELEMENT_SET_NO":999,"REV_AT_EPOCH":37798,"BSTAR":0.0012153388,"MEAN_MOTION_DOT":5.074e-5,"MEAN_MOTION_DDOT":0}]
